STARLINK-6283           
1 56406U 23061AJ  25349.52085809  .00000921  00000+0  83240-4 0  9995
2 56406  43.0033 281.8013 0001328 275.2062  84.8629 15.02535246144242
STARLINK-6282           
1 56407U 23061AK  25349.53195681  .00000602  00000+0  59599-4 0  9993
2 56407  43.0035 281.8890 0001184 275.7973  84.2734 15.02533352144241
STARLINK-6289           
1 56408U 23061AL  25349.84547496  .00000492  00000+0  51514-4 0  9999
2 56408  43.0045 279.9306 0001353 273.8414  86.2273 15.02533049144298
STARLINK-6241           
1 56409U 23061AM  25349.26050320 -.00001697  00000+0 -11057-3 0  9998
2 56409  43.0031 283.2931 0001042 281.3029  78.7696 15.02532478144208
STARLINK-6281           
1 56410U 23061AN  25349.84437097 -.00002147  00000+0 -14390-3 0  9998
2 56410  43.0044 279.9291 0001270 260.9884  99.0815 15.02543275144295
STARLINK-6279           
1 56411U 23061AP  25349.85657721  .00000340  00000+0  40220-4 0  9991
2 56411  43.0044 280.0210 0001266 275.2973  84.7725 15.02540773144294
STARLINK-6278           
1 56412U 23061AQ  25349.50643263 -.00000368  00000+0 -12165-4 0  9999
2 56412  43.0041 281.6924 0000835 275.7853  84.2895 15.02529021144245
STARLINK-6258           
1 56413U 23061AR  25349.51529531  .00003646  00000+0  28475-3 0  9992
2 56413  43.0051 281.7616 0001330 264.8091  95.2600 15.02543940144242
STARLINK-5136           
1 56414U 23061AS  25349.23608047 -.00000040  00000+0  12079-4 0  9992
2 56414  43.0039 283.1033 0001091 272.5818  87.4900 15.02529251144206
STARLINK-6260           
1 56416U 23061AU  25349.15333158 -.00000037  00000+0  12304-4 0  9990
2 56416  43.0034 271.2013 0001285 280.6987  79.3711 15.02528531144335
STARLINK-6261           
1 56417U 23061AV  25349.23719057 -.00000451  00000+0 -18289-4 0  9995
2 56417  43.0054 283.1170 0001046 267.4240  92.6482 15.02538337144208
STARLINK-5356           
1 56418U 23061AW  25349.14001591 -.00002005  00000+0 -13340-3 0  9992
2 56418  43.0035 271.0974 0001057 270.5040  89.5681 15.02540809144338
STARLINK-5350           
1 56419U 23061AX  25349.16738122  .00000006  00000+0  15547-4 0  9991
2 56419  43.0045 283.4509 0001332 266.2063  93.8627 15.02539732144199
STARLINK-6272           
1 56420U 23061AY  25349.80145815 -.00003584  00000+0 -25029-3 0  9996
2 56420  43.0045 267.4598 0001299 278.7929  81.2766 15.02550675144433
STARLINK-6270           
1 56421U 23061AZ  25349.75495748  .00000380  00000+0  43217-4 0  9993
2 56421  43.0050 267.9675 0001198 276.2201  83.8505 15.02534170144425
STARLINK-6236           
1 56422U 23061BA  25349.13002740  .00000661  00000+0  64026-4 0  9995
2 56422  43.0046 271.0240 0001345 266.5906  93.4782 15.02538430144330
