[{"OBJECT_NAME":"STARLINK-6283","OBJECT_ID":"2023-061AJ","EPOCH":"2025-12-15T12:30:02.138976","MEAN_MOTION":15.02535246,"ECCENTRICITY":0.00013284,"INCLINATION":43.0033,"RA_OF_ASC_NODE":281.8013,"ARG_OF_PERICENTER":275.2062,"MEAN_ANOMALY":84.8629,"EPHEMERIS_TYPE":0,"CLASSIFICATION_TYPE":"U","NORAD_CAT_ID":56406,"ELEMENT_SET_NO":999,"REV_AT_EPOCH":14424,"BSTAR":8.3240012e-5,"MEAN_MOTION_DOT":9.21e-6,"MEAN_MOTION_DDOT":0},{"OBJECT_NAME":"STARLINK-6282","OBJECT_ID":"2023-061AK","EPOCH":"2025-12-15T12:46:01.068384","MEAN_MOTION":15.02533352,"ECCENTRICITY":0.00011845,"INCLINATION":43.0035,"RA_OF_ASC_NODE":281.889,"ARG_OF_PERICENTER":275.7973,"MEAN_ANOMALY":84.2734,"EPHEMERIS_TYPE":0,"CLASSIFICATION_TYPE":"U","NORAD_CAT_ID":56407,"ELEMENT_SET_NO":999,"REV_AT_EPOCH":14424,"BSTAR":5.9599397e-5,"MEAN_MOTION_DOT":6.02e-6,"MEAN_MOTION_DDOT":0},{"OBJECT_NAME":"STARLINK-6289","OBJECT_ID":"2023-061AL","EPOCH":"2025-12-15T20:17:29.036544","MEAN_MOTION":15.02533049,"ECCENTRICITY":0.00013536,"INCLINATION":43.0045,"RA_OF_ASC_NODE":279.9306,"ARG_OF_PERICENTER":273.8414,"MEAN_ANOMALY":86.2273,"EPHEMERIS_TYPE":0,"CLASSIFICATION_TYPE":"U","NORAD_CAT_ID":56408,"ELEMENT_SET_NO":999,"REV_AT_EPOCH":14429,"BSTAR":5.1513647e-5,"MEAN_MOTION_DOT":4.92e-6,"MEAN_MOTION_DDOT":0},{"OBJECT_NAME":"STARLINK-6241","OBJECT_ID":"2023-061AM","EPOCH":"2025-12-15T06:15:07.476480","MEAN_MOTION":15.02532478,"ECCENTRICITY":0.00010425,"INCLINATION":43.0031,"RA_OF_ASC_NODE":283.2931,"ARG_OF_PERICENTER":281.3029,"MEAN_ANOMALY":78.7696,"EPHEMERIS_TYPE":0,"CLASSIFICATION_TYPE":"U","NORAD_CAT_ID":56409,"ELEMENT_SET_NO":999,"REV_AT_EPOCH":14420,"BSTAR":-0.0001105715,"MEAN_MOTION_DOT":-1.697e-5,"MEAN_MOTION_DDOT":0},{"OBJECT_NAME":"STARLINK-6281","OBJECT_ID":"2023-061AN","EPOCH":"2025-12-15T20:15:53.651808","MEAN_MOTION":15.02543275,"ECCENTRICITY":0.000127,"INCLINATION":43.0044,"RA_OF_ASC_NODE":279.9291,"ARG_OF_PERICENTER":260.9884,"MEAN_ANOMALY":99.0815,"EPHEMERIS_TYPE":0,"CLASSIFICATION_TYPE":"U","NORAD_CAT_ID":56410,"ELEMENT_SET_NO":999,"REV_AT_EPOCH":14429,"BSTAR":-0.00014390463,"MEAN_MOTION_DOT":-2.147e-5,"MEAN_MOTION_DDOT":0},{"OBJECT_NAME":"STARLINK-6279","OBJECT_ID":"2023-061AP","EPOCH":"2025-12-15T20:33:28.270944","MEAN_MOTION":15.02540773,"ECCENTRICITY":0.00012665,"INCLINATION":43.0044,"RA_OF_ASC_NODE":280.021,"ARG_OF_PERICENTER":275.2973,"MEAN_ANOMALY":84.7725,"EPHEMERIS_TYPE":0,"CLASSIFICATION_TYPE":"U","NORAD_CAT_ID":56411,"ELEMENT_SET_NO":999,"REV_AT_EPOCH":14429,"BSTAR":4.0220269e-5,"MEAN_MOTION_DOT":3.4e-6,"MEAN_MOTION_DDOT":0},{"OBJECT_NAME":"STARLINK-6278","OBJECT_ID":"2023-061AQ","EPOCH":"2025-12-15T12:09:15.779232","MEAN_MOTION":15.02529021,"ECCENTRICITY":8.356e-5,"INCLINATION":43.0041,"RA_OF_ASC_NODE":281.6924,"ARG_OF_PERICENTER":275.7853,"MEAN_ANOMALY":84.2895,"EPHEMERIS_TYPE":0,"CLASSIFICATION_TYPE":"U","NORAD_CAT_ID":56412,"ELEMENT_SET_NO":999,"REV_AT_EPOCH":14424,"BSTAR":-1.2164986e-5,"MEAN_MOTION_DOT":-3.68e-6,"MEAN_MOTION_DDOT":0},{"OBJECT_NAME":"STARLINK-6258","OBJECT_ID":"2023-061AR","EPOCH":"2025-12-15T12:22:01.514784","MEAN_MOTION":15.0254394,"ECCENTRICITY":0.00013309,"INCLINATION":43.0051,"RA_OF_ASC_NODE":281.7616,"ARG_OF_PERICENTER":264.8091,"MEAN_ANOMALY":95.26,"EPHEMERIS_TYPE":0,"CLASSIFICATION_TYPE":"U","NORAD_CAT_ID":56413,"ELEMENT_SET_NO":999,"REV_AT_EPOCH":14424,"BSTAR":0.00028475093,"MEAN_MOTION_DOT":3.646e-5,"MEAN_MOTION_DDOT":0},{"OBJECT_NAME":"STARLINK-5136","OBJECT_ID":"2023-061AS","EPOCH":"2025-12-15T05:39:57.352608","MEAN_MOTION":15.02529251,"ECCENTRICITY":0.00010913,"INCLINATION":43.0039,"RA_OF_ASC_NODE":283.1033,"ARG_OF_PERICENTER":272.5818,"MEAN_ANOMALY":87.49,"EPHEMERIS_TYPE":0,"CLASSIFICATION_TYPE":"U","NORAD_CAT_ID":56414,"ELEMENT_SET_NO":999,"REV_AT_EPOCH":14420,"BSTAR":1.2079221e-5,"MEAN_MOTION_DOT":-4.0e-7,"MEAN_MOTION_DDOT":0},{"OBJECT_NAME":"STARLINK-6260","OBJECT_ID":"2023-061AU","EPOCH":"2025-12-15T03:40:47.848512","MEAN_MOTION":15.02528531,"ECCENTRICITY":0.00012853,"INCLINATION":43.0034,"RA_OF_ASC_NODE":271.2013,"ARG_OF_PERICENTER":280.6987,"MEAN_ANOMALY":79.3711,"EPHEMERIS_TYPE":0,"CLASSIFICATION_TYPE":"U","NORAD_CAT_ID":56416,"ELEMENT_SET_NO":999,"REV_AT_EPOCH":14433,"BSTAR":1.2303676e-5,"MEAN_MOTION_DOT":-3.7e-7,"MEAN_MOTION_DDOT":0},{"OBJECT_NAME":"STARLINK-6261","OBJECT_ID":"2023-061AV","EPOCH":"2025-12-15T05:41:33.265248","MEAN_MOTION":15.02538337,"ECCENTRICITY":0.00010462,"INCLINATION":43.0054,"RA_OF_ASC_NODE":283.117,"ARG_OF_PERICENTER":267.424,"MEAN_ANOMALY":92.6482,"EPHEMERIS_TYPE":0,"CLASSIFICATION_TYPE":"U","NORAD_CAT_ID":56417,"ELEMENT_SET_NO":999,"REV_AT_EPOCH":14420,"BSTAR":-1.8289177e-5,"MEAN_MOTION_DOT":-4.51e-6,"MEAN_MOTION_DDOT":0},{"OBJECT_NAME":"STARLINK-5356","OBJECT_ID":"2023-061AW","EPOCH":"2025-12-15T03:21:37.374624","MEAN_MOTION":15.02540809,"ECCENTRICITY":0.0001057,"INCLINATION":43.0035,"RA_OF_ASC_NODE":271.0974,"ARG_OF_PERICENTER":270.504,"MEAN_ANOMALY":89.5681,"EPHEMERIS_TYPE":0,"CLASSIFICATION_TYPE":"U","NORAD_CAT_ID":56418,"ELEMENT_SET_NO":999,"REV_AT_EPOCH":14433,"BSTAR":-0.00013339975,"MEAN_MOTION_DOT":-2.005e-5,"MEAN_MOTION_DDOT":0},{"OBJECT_NAME":"STARLINK-5350","OBJECT_ID":"2023-061AX","EPOCH":"2025-12-15T04:01:01.737408","MEAN_MOTION":15.02539732,"ECCENTRICITY":0.00013321,"INCLINATION":43.0045,"RA_OF_ASC_NODE":283.4509,"ARG_OF_PERICENTER":266.2063,"MEAN_ANOMALY":93.8627,"EPHEMERIS_TYPE":0,"CLASSIFICATION_TYPE":"U","NORAD_CAT_ID":56419,"ELEMENT_SET_NO":999,"REV_AT_EPOCH":14419,"BSTAR":1.5547313e-5,"MEAN_MOTION_DOT":6.0e-8,"MEAN_MOTION_DDOT":0},{"OBJECT_NAME":"STARLINK-6272","OBJECT_ID":"2023-061AY","EPOCH":"2025-12-15T19:14:05.984160","MEAN_MOTION":15.02550675,"ECCENTRICITY":0.0001299,"INCLINATION":43.0045,"RA_OF_ASC_NODE":267.4598,"ARG_OF_PERICENTER":278.7929,"MEAN_ANOMALY":81.2766,"EPHEMERIS_TYPE":0,"CLASSIFICATION_TYPE":"U","NORAD_CAT_ID":56420,"ELEMENT_SET_NO":999,"REV_AT_EPOCH":14443,"BSTAR":-0.00025028997,"MEAN_MOTION_DOT":-3.584e-5,"MEAN_MOTION_DDOT":0},{"OBJECT_NAME":"STARLINK-6270","OBJECT_ID":"2023-061AZ","EPOCH":"2025-12-15T18:07:08.326272","MEAN_MOTION":15.0253417,"ECCENTRICITY":0.00011983,"INCLINATION":43.005,"RA_OF_ASC_NODE":267.9675,"ARG_OF_PERICENTER":276.2201,"MEAN_ANOMALY":83.8505,"EPHEMERIS_TYPE":0,"CLASSIFICATION_TYPE":"U","NORAD_CAT_ID":56421,"ELEMENT_SET_NO":999,"REV_AT_EPOCH":14442,"BSTAR":4.3216551e-5,"MEAN_MOTION_DOT":3.8e-6,"MEAN_MOTION_DDOT":0},{"OBJECT_NAME":"STARLINK-6236","OBJECT_ID":"2023-061BA","EPOCH":"2025-12-15T03:07:14.367360","MEAN_MOTION":15.0253843,"ECCENTRICITY":0.00013459,"INCLINATION":43.0046,"RA_OF_ASC_NODE":271.024,"ARG_OF_PERICENTER":266.5906,"MEAN_ANOMALY":93.4782,"EPHEMERIS_TYPE":0,"CLASSIFICATION_TYPE":"U","NORAD_CAT_ID":56422,"ELEMENT_SET_NO":999,"REV_AT_EPOCH":14433,"BSTAR":6.4025761e-5,"MEAN_MOTION_DOT":6.61e-6,"MEAN_MOTION_DDOT":0}]
